NORAD_CAT_ID,OBJECT_NAME,OBJECT_TYPE,EPOCH,MEAN_MOTION,ECCENTRICITY,INCLINATION,RA_OF_ASC_NODE,ARG_OF_PERICENTER,MEAN_ANOMALY,BSTAR,MEAN_MOTION_DOT,MEAN_MOTION_DDOT,TLE_LINE0,TLE_LINE1,TLE_LINE2,SEMIMAJOR_AXIS,PERIOD,APOGEE,PERIGEE,DECAYED
52551.0,STARLINK-3969,PAYLOAD,2023-08-04 20:15:30,15.08845559,9.45e-05,53.2154,64.1676,87.9234,272.1867,0.00033762,5.09e-05,0.0,0 STARLINK-3969,1 52551U 22051U   23216.84410323  .00005090  00000-0  33762-3 0  9995,2 52551  53.2154  64.1676 0000945  87.9234 272.1867 15.08845559 68424,6917.863,95.437,540.382,539.075,0.0
52551.0,STARLINK-3969,PAYLOAD,2023-08-05 23:17:03,15.08868974,0.0001059,53.2163,59.1118,68.8013,291.3092,0.00078003,0.00012158,0.0,0 STARLINK-3969,1 52551U 22051U   23217.97017412  .00012158  00000-0  78003-3 0  9992,2 52551  53.2163  59.1118 0001059  68.8013 291.3092 15.08868974 68596,6917.792,95.436,540.389,538.924,0.0
52551.0,STARLINK-3969,PAYLOAD,2023-08-06 19:57:05,15.08828057,9.43e-05,53.2171,55.2453,86.9382,273.1718,-0.00020757,-3.589e-05,0.0,0 STARLINK-3969,1 52551U 22051U   23218.83130819 -.00003589  00000-0 -20757-3 0  9998,2 52551  53.2171  55.2453 0000943  86.9382 273.1718 15.08828057 68721,6917.917,95.438,540.434,539.13,0.0
52551.0,STARLINK-3969,PAYLOAD,2023-08-07 19:47:52,15.08846899,8.4e-05,53.2176,50.7848,91.4036,268.7053,0.00047427,7.27e-05,0.0,0 STARLINK-3969,1 52551U 22051U   23219.82490832  .00007270  00000-0  47427-3 0  9994,2 52551  53.2176  50.7848 0000840  91.4036 268.7053 15.08846899 68879,6917.859,95.437,540.305,539.143,0.0
52551.0,STARLINK-3969,PAYLOAD,2023-08-08 13:17:06,15.08843538,8.77e-05,53.2173,47.5148,96.3072,263.802,0.00025773,3.817e-05,0.0,0 STARLINK-3969,1 52551U 22051U   23220.55355034  .00003817  00000-0  25773-3 0  9993,2 52551  53.2173  47.5148 0000877  96.3072 263.8020 15.08843538 68986,6917.87,95.437,540.341,539.128,0.0
52551.0,STARLINK-3969,PAYLOAD,2023-08-09 13:07:53,15.08839992,4.66e-05,53.2169,43.055,41.8435,318.2593,4.5943e-08,-2.87e-06,0.0,0 STARLINK-3969,1 52551U 22051U   23221.54714920 -.00000287  00000-0  45943-7 0  9990,2 52551  53.2169  43.0550 0000466  41.8435 318.2593 15.08839992 69138,6917.88,95.438,540.068,539.423,0.0
52551.0,STARLINK-3969,PAYLOAD,2023-08-10 20:55:36,15.08846178,0.0001049,53.2187,37.1084,86.3644,273.7468,0.00014438,2.011e-05,0.0,0 STARLINK-3969,1 52551U 22051U   23222.87194763  .00002011  00000-0  14438-3 0  9991,2 52551  53.2187  37.1084 0001049  86.3644 273.7468 15.08846178 69330,6917.862,95.437,540.452,539.001,0.0
52551.0,STARLINK-3969,PAYLOAD,2023-08-11 04:52:32,15.08839411,0.0001001,53.2176,35.6214,81.9408,278.1698,7.5026e-05,9.06e-06,0.0,0 STARLINK-3969,1 52551U 22051U   23223.20315122  .00000906  00000-0  75026-4 0  9995,2 52551  53.2176  35.6214 0001001  81.9408 278.1698 15.08839411 69384,6917.882,95.438,540.44,539.055,0.0
52551.0,STARLINK-3969,PAYLOAD,2023-08-12 11:04:51,15.08839306,8.71e-05,53.2166,29.9706,87.5937,272.5155,9.9604e-05,1.298e-05,0.0,0 STARLINK-3969,1 52551U 22051U   23224.46171179  .00001298  00000-0  99604-4 0  9999,2 52551  53.2166  29.9706 0000871  87.5937 272.5155 15.08839306 69578,6917.883,95.438,540.35,539.145,0.0
52551.0,STARLINK-3969,PAYLOAD,2023-08-13 17:17:11,15.0884086,8.74e-05,53.2182,24.321,84.7174,275.3918,3.5905e-05,2.84e-06,0.0,0 STARLINK-3969,1 52551U 22051U   23225.72027284  .00000284  00000-0  35905-4 0  9994,2 52551  53.2182  24.3210 0000874  84.7174 275.3918 15.08840860 69766,6917.878,95.438,540.347,539.138,0.0
52551.0,STARLINK-3969,PAYLOAD,2023-08-15 10:37:13,15.08837909,8.65e-05,53.218,16.5898,82.2467,277.8624,0.00011106,1.48e-05,0.0,0 STARLINK-3969,1 52551U 22051U   23227.44251523  .00001480  00000-0  11106-3 0  9995,2 52551  53.2180  16.5898 0000865  82.2467 277.8624 15.08837909 70029,6917.887,95.438,540.35,539.153,0.0
52551.0,STARLINK-3969,PAYLOAD,2023-08-16 02:31:04,15.08846266,8.23e-05,53.2178,13.6165,71.8568,288.2513,0.00011476,1.539e-05,0.0,0 STARLINK-3969,1 52551U 22051U   23228.10490868  .00001539  00000-0  11476-3 0  9991,2 52551  53.2178  13.6165 0000823  71.8568 288.2513 15.08846266 70121,6917.861,95.437,540.296,539.157,0.0
52551.0,STARLINK-3969,PAYLOAD,2023-08-16 18:24:55,15.08842806,0.0001052,53.2172,10.6435,87.4849,272.6263,6.6387e-05,7.69e-06,0.0,0 STARLINK-3969,1 52551U 22051U   23228.76731358  .00000769  00000-0  66387-4 0  9991,2 52551  53.2172  10.6435 0001052  87.4849 272.6263 15.08842806 70228,6917.872,95.437,540.465,539.009,0.0
52551.0,STARLINK-3969,PAYLOAD,2023-08-17 02:21:51,15.08837555,0.0001019,53.2176,9.1562,84.7925,275.3184,3.0024e-05,1.9e-06,0.0,0 STARLINK-3969,1 52551U 22051U   23229.09851816  .00000190  00000-0  30024-4 0  9997,2 52551  53.2176   9.1562 0001019  84.7925 275.3184 15.08837555 70276,6917.888,95.438,540.458,539.048,0.0
52551.0,STARLINK-3969,PAYLOAD,2023-08-18 03:48:01,15.08841023,0.0001311,53.2176,4.3982,91.5991,268.5151,0.00011938,1.613e-05,0.0,0 STARLINK-3969,1 52551U 22051U   23230.15835435  .00001613  00000-0  11938-3 0  9998,2 52551  53.2176   4.3982 0001311  91.5991 268.5151 15.08841023 70434,6917.877,95.437,540.649,538.835,0.0
52551.0,STARLINK-3969,PAYLOAD,2023-08-19 02:03:26,15.088339,5.65e-05,53.2198,0.2347,94.3696,265.7361,3.0464e-05,1.97e-06,0.0,0 STARLINK-3969,1 52551U 22051U   23231.08572068  .00000197  00000-0  30464-4 0  9993,2 52551  53.2198   0.2347 0000565  94.3696 265.7361 15.08833900 70573,6917.899,95.438,540.155,539.373,0.0
52551.0,STARLINK-3969,PAYLOAD,2023-08-20 11:26:32,15.08831585,0.0001124,53.2179,353.9899,97.597,262.515,0.00030366,4.547e-05,0.0,0 STARLINK-3969,1 52551U 22051U   23232.47675954  .00004547  00000-0  30366-3 0  9998,2 52551  53.2179 353.9899 0001124  97.5970 262.5150 15.08831585 70785,6917.906,95.438,540.549,538.994,0.0
52551.0,STARLINK-3969,PAYLOAD,2023-08-21 12:52:42,15.08834977,0.0001018,53.2178,349.2329,84.6209,275.49,6.4026e-05,7.31e-06,0.0,0 STARLINK-3969,1 52551U 22051U   23233.53660424  .00000731  00000-0  64026-4 0  9994,2 52551  53.2178 349.2329 0001018  84.6209 275.4900 15.08834977 70946,6917.896,95.438,540.465,539.057,0.0
52551.0,STARLINK-3969,PAYLOAD,2023-08-23 12:34:16,15.08836842,0.0001141,53.2186,340.3141,90.2116,269.9007,9.764e-05,1.266e-05,0.0,0 STARLINK-3969,1 52551U 22051U   23235.52380321  .00001266  00000-0  97640-4 0  9992,2 52551  53.2186 340.3141 0001141  90.2116 269.9007 15.08836842 71249,6917.89,95.438,540.544,538.966,0.0
52551.0,STARLINK-3969,PAYLOAD,2023-08-24 15:35:49,15.08842106,0.0001328,53.2186,335.2573,106.3039,253.8099,8.0737e-05,9.97e-06,0.0,0 STARLINK-3969,1 52551U 22051U   23236.64988099  .00000997  00000-0  80737-4 0  9991,2 52551  53.2186 335.2573 0001328 106.3039 253.8099 15.08842106 71413,6917.874,95.437,540.658,538.82,0.0
52551.0,STARLINK-3969,PAYLOAD,2023-08-25 10:40:27,15.08836725,0.0001316,53.2173,331.6872,109.453,250.6605,4.1454e-05,3.72e-06,0.0,0 STARLINK-3969,1 52551U 22051U   23237.44476564  .00000372  00000-0  41454-4 0  9999,2 52551  53.2173 331.6872 0001316 109.4530 250.6605 15.08836725 71539,6917.89,95.438,540.666,538.845,0.0
52551.0,STARLINK-3969,PAYLOAD,2023-08-25 12:15:50,15.08839046,0.0001445,53.2191,331.3917,110.1627,249.9521,5.3258e-05,5.6e-06,0.0,0 STARLINK-3969,1 52551U 22051U   23237.51100445  .00000560  00000-0  53258-4 0  9993,2 52551  53.2191 331.3917 0001445 110.1627 249.9521 15.08839046 71475,6917.883,95.438,540.748,538.749,0.0
52551.0,STARLINK-3969,PAYLOAD,2023-08-25 13:51:13,15.08842233,0.0001213,53.2172,331.0927,103.5066,256.6062,8.135e-05,1.007e-05,0.0,0 STARLINK-3969,1 52551U 22051U   23237.57724151  .00001007  00000-0  81350-4 0  9996,2 52551  53.2172 331.0927 0001213 103.5066 256.6062 15.08842233 71486,6917.874,95.437,540.578,538.899,0.0
52551.0,STARLINK-3969,PAYLOAD,2023-08-26 12:06:37,15.08840743,0.0001364,53.2168,326.9296,105.9929,254.1213,4.9537e-05,5.01e-06,0.0,0 STARLINK-3969,1 52551U 22051U   23238.50460443  .00000501  00000-0  49537-4 0  9990,2 52551  53.2168 326.9296 0001364 105.9929 254.1213 15.08840743 71625,6917.878,95.438,540.687,538.8,0.0
52551.0,STARLINK-3969,PAYLOAD,2023-08-26 18:28:11,15.08823264,0.0001406,53.2179,325.7435,79.7785,280.3365,0.00024754,3.652e-05,0.0,0 STARLINK-3969,1 52551U 22051U   23238.76957411  .00003652  00000-0  24754-3 0  9997,2 52551  53.2179 325.7435 0001406  79.7785 280.3365 15.08823264 71666,6917.932,95.439,540.769,538.824,0.0
52551.0,STARLINK-3969,PAYLOAD,2023-08-27 05:35:52,15.08835989,0.0001133,53.2179,323.658,113.3387,246.7724,2.4621e-06,-2.49e-06,0.0,0 STARLINK-3969,1 52551U 22051U   23239.23325007 -.00000249  00000-0  24621-5 0  9995,2 52551  53.2179 323.6580 0001133 113.3387 246.7724 15.08835989 71802,6917.893,95.438,540.541,538.974,0.0
52551.0,STARLINK-3969,PAYLOAD,2023-08-27 13:32:48,15.08864122,0.0001605,53.2173,322.1715,76.4022,283.7148,-6.6731e-05,-1.351e-05,0.0,0 STARLINK-3969,1 52551U 22051U   23239.56444885 -.00001351  00000-0 -66731-4 0  9990,2 52551  53.2173 322.1715 0001605  76.4022 283.7148 15.08864122 71856,6917.807,95.436,540.782,538.561,0.0
52551.0,STARLINK-3969,PAYLOAD,2023-08-28 08:37:25,15.08841955,0.000132,53.2175,318.604,90.7502,269.3642,9.0414e-06,-1.44e-06,0.0,0 STARLINK-3969,1 52551U 22051U   23240.35932666 -.00000144  00000-0  90414-5 0  9992,2 52551  53.2175 318.6040 0001320  90.7502 269.3642 15.08841955 71976,6917.874,95.437,540.653,538.826,0.0
52551.0,STARLINK-3969,PAYLOAD,2023-08-28 13:23:34,15.08844892,0.000134,53.2172,317.7115,92.9601,267.1544,3.2107e-05,2.23e-06,0.0,0 STARLINK-3969,1 52551U 22051U   23240.55804338  .00000223  00000-0  32107-4 0  9999,2 52551  53.2172 317.7115 0001340  92.9601 267.1544 15.08844892 71938,6917.865,95.437,540.657,538.803,0.0
52551.0,STARLINK-3969,PAYLOAD,2023-08-29 10:03:35,15.08842906,0.0001324,53.2174,313.8447,94.7084,265.4059,-1.3351e-05,-5e-06,0.0,0 STARLINK-3969,1 52551U 22051U   23241.41916464 -.00000500  00000-0 -13351-4 0  9999,2 52551  53.2174 313.8447 0001324  94.7084 265.4059 15.08842906 72131,6917.872,95.437,540.652,538.821,0.0
